{"type": "FeatureCollection", "features": [ {"type": "Feature", "properties": {"norad_id": 35480, "name": "IRIDIUM 33 DEB", "group": "iridium-33-debris", "lat": -20.194046556353204, "lon": 25.52059321085195, "alt_km": 739.745490205597, "timestamp": "2025-12-08T05:48:09.419041+00:00", "meta": {"OBJECT_NAME": "IRIDIUM 33 DEB", "OBJECT_ID": "1997-051QA", "EPOCH": "2025-12-01T21:29:27.496896", "MEAN_MOTION": 14.49686619, "ECCENTRICITY": 0.00155495, "INCLINATION": 86.3575, "RA_OF_ASC_NODE": 29.6125, "ARG_OF_PERICENTER": 136.7189, "MEAN_ANOMALY": 223.524, "EPHEMERIS_TYPE": 0, "CLASSIFICATION_TYPE": "U", "NORAD_CAT_ID": 35480, "ELEMENT_SET_NO": 999, "REV_AT_EPOCH": 86874, "BSTAR": 0.000651702, "MEAN_MOTION_DOT": 2.53e-05, "MEAN_MOTION_DDOT": 0}, "tle": {"line1": "1 35480U 97051QA  25335.89545714  .00002530  00000+0  65170-3 0  9994", "line2": "2 35480  86.3575  29.6125 0015549 136.7189 223.5240 14.49686619868745"}}, "geometry": {"type": "Point", "coordinates": [25.52059321085195, -20.194046556353204]}}, {"type": "Feature", "properties": {"norad_id": 35484, "name": "IRIDIUM 33 DEB", "group": "iridium-33-debris", "lat": 74.5565925538783, "lon": 8.164995880855889, "alt_km": 559.6433921205762, "timestamp": "2025-12-08T05:48:09.419051+00:00", "meta": {"OBJECT_NAME": "IRIDIUM 33 DEB", "OBJECT_ID": "1997-051QE", "EPOCH": "2025-12-01T19:32:14.692416", "MEAN_MOTION": 14.97587734, "ECCENTRICITY": 0.00218288, "INCLINATION": 86.3628, "RA_OF_ASC_NODE": 357.8533, "ARG_OF_PERICENTER": 162.6444, "MEAN_ANOMALY": 197.5538, "EPHEMERIS_TYPE": 0, "CLASSIFICATION_TYPE": "U", "NORAD_CAT_ID": 35484, "ELEMENT_SET_NO": 999, "REV_AT_EPOCH": 61852, "BSTAR": 0.0025030806, "MEAN_MOTION_DOT": 0.00029486, "MEAN_MOTION_DDOT": 0}, "tle": {"line1": "1 35484U 97051QE  25335.81405894  .00029486  00000+0  25031-2 0  9994", "line2": "2 35484  86.3628 357.8533 0021828 162.6444 197.5538 14.97587734618526"}}, "geometry": {"type": "Point", "coordinates": [8.164995880855889, 74.5565925538783]}}, {"type": "Feature", "properties": {"norad_id": 35488, "name": "IRIDIUM 33 DEB", "group": "iridium-33-debris", "lat": 77.01288366887685, "lon": -40.866561248077154, "alt_km": 593.1479527658094, "timestamp": "2025-12-08T05:48:09.419061+00:00", "meta": {"OBJECT_NAME": "IRIDIUM 33 DEB", "OBJECT_ID": "1997-051QJ", "EPOCH": "2025-12-07T14:52:48.765504", "MEAN_MOTION": 14.82861874, "ECCENTRICITY": 0.00304076, "INCLINATION": 86.3248, "RA_OF_ASC_NODE": 303.2376, "ARG_OF_PERICENTER": 59.1237, "MEAN_ANOMALY": 301.297, "EPHEMERIS_TYPE": 0, "CLASSIFICATION_TYPE": "U", "NORAD_CAT_ID": 35488, "ELEMENT_SET_NO": 999, "REV_AT_EPOCH": 88190, "BSTAR": 0.002489408, "MEAN_MOTION_DOT": 0.00020383, "MEAN_MOTION_DDOT": 0}, "tle": {"line1": "1 35488U 97051QJ  25341.62000886  .00020383  00000+0  24894-2 0  9999", "line2": "2 35488  86.3248 303.2376 0030407  59.1237 301.2970 14.82861874881903"}}, "geometry": {"type": "Point", "coordinates": [-40.866561248077154, 77.01288366887685]}}, {"type": "Feature", "properties": {"norad_id": 35616, "name": "IRIDIUM 33 DEB", "group": "iridium-33-debris", "lat": -76.4618544561268, "lon": -176.82677322055625, "alt_km": 630.046379762085, "timestamp": "2025-12-08T05:48:09.419071+00:00", "meta": {"OBJECT_NAME": "IRIDIUM 33 DEB", "OBJECT_ID": "1997-051QN", "EPOCH": "2025-12-06T07:15:38.847744", "MEAN_MOTION": 14.81564916, "ECCENTRICITY": 0.00091957, "INCLINATION": 86.3542, "RA_OF_ASC_NODE": 348.7026, "ARG_OF_PERICENTER": 186.8662, "MEAN_ANOMALY": 173.2436, "EPHEMERIS_TYPE": 0, "CLASSIFICATION_TYPE": "U", "NORAD_CAT_ID": 35616, "ELEMENT_SET_NO": 999, "REV_AT_EPOCH": 87479, "BSTAR": 0.0030438731, "MEAN_MOTION_DOT": 0.00023991, "MEAN_MOTION_DDOT": 0}, "tle": {"line1": "1 35616U 97051QN  25340.30253296  .00023991  00000+0  30439-2 0  9991", "line2": "2 35616  86.3542 348.7026 0009195 186.8662 173.2436 14.81564916874798"}}, "geometry": {"type": "Point", "coordinates": [-176.82677322055625, -76.4618544561268]}}, {"type": "Feature", "properties": {"norad_id": 35618, "name": "IRIDIUM 33 DEB", "group": "iridium-33-debris", "lat": 40.94806658236899, "lon": 172.28525103216415, "alt_km": 719.5750716646853, "timestamp": "2025-12-08T05:48:09.419080+00:00", "meta": {"OBJECT_NAME": "IRIDIUM 33 DEB", "OBJECT_ID": "1997-051QQ", "EPOCH": "2025-12-05T07:42:53.148672", "MEAN_MOTION": 14.52258119, "ECCENTRICITY": 0.00302089, "INCLINATION": 86.3407, "RA_OF_ASC_NODE": 356.7447, "ARG_OF_PERICENTER": 46.3254, "MEAN_ANOMALY": 314.0448, "EPHEMERIS_TYPE": 0, "CLASSIFICATION_TYPE": "U", "NORAD_CAT_ID": 35618, "ELEMENT_SET_NO": 999, "REV_AT_EPOCH": 65286, "BSTAR": 0.00091388234, "MEAN_MOTION_DOT": 3.753e-05, "MEAN_MOTION_DDOT": 0}, "tle": {"line1": "1 35618U 97051QQ  25339.32144848  .00003753  00000+0  91388-3 0  9990", "line2": "2 35618  86.3407 356.7447 0030208  46.3254 314.0448 14.52258119652865"}}, "geometry": {"type": "Point", "coordinates": [172.28525103216415, 40.94806658236899]}}, {"type": "Feature", "properties": {"norad_id": 35620, "name": "IRIDIUM 33 DEB", "group": "iridium-33-debris", "lat": -5.266922895017507, "lon": -140.98251624156887, "alt_km": 751.9957640801795, "timestamp": "2025-12-08T05:48:09.419090+00:00", "meta": {"OBJECT_NAME": "IRIDIUM 33 DEB", "OBJECT_ID": "1997-051QS", "EPOCH": "2025-12-07T09:47:01.236480", "MEAN_MOTION": 14.37772591, "ECCENTRICITY": 0.0143262, "INCLINATION": 86.3889, "RA_OF_ASC_NODE": 219.7026, "ARG_OF_PERICENTER": 276.5805, "MEAN_ANOMALY": 81.9102, "EPHEMERIS_TYPE": 0, "CLASSIFICATION_TYPE": "U", "NORAD_CAT_ID": 35620, "ELEMENT_SET_NO": 999, "REV_AT_EPOCH": 59889, "BSTAR": 0.0083170941, "MEAN_MOTION_DOT": 0.00028295, "MEAN_MOTION_DDOT": 0}, "tle": {"line1": "1 35620U 97051QS  25341.40765320  .00028295  00000+0  83171-2 0  9997", "line2": "2 35620  86.3889 219.7026 0143262 276.5805  81.9102 14.37772591598894"}}, "geometry": {"type": "Point", "coordinates": [-140.98251624156887, -5.266922895017507]}}, {"type": "Feature", "properties": {"norad_id": 35622, "name": "IRIDIUM 33 DEB", "group": "iridium-33-debris", "lat": 84.93326282642951, "lon": -45.70694289597234, "alt_km": 548.1873015234514, "timestamp": "2025-12-08T05:48:09.419100+00:00", "meta": {"OBJECT_NAME": "IRIDIUM 33 DEB", "OBJECT_ID": "1997-051QU", "EPOCH": "2025-12-07T06:08:10.382208", "MEAN_MOTION": 15.0368423, "ECCENTRICITY": 0.00091825, "INCLINATION": 86.2049, "RA_OF_ASC_NODE": 266.3018, "ARG_OF_PERICENTER": 353.8818, "MEAN_ANOMALY": 157.8722, "EPHEMERIS_TYPE": 0, "CLASSIFICATION_TYPE": "U", "NORAD_CAT_ID": 35622, "ELEMENT_SET_NO": 999, "REV_AT_EPOCH": 87277, "BSTAR": 0.0074565803, "MEAN_MOTION_DOT": 0.00103587, "MEAN_MOTION_DDOT": 0}, "tle": {"line1": "1 35622U 97051QU  25341.25567572  .00103587  00000+0  74566-2 0  9997", "line2": "2 35622  86.2049 266.3018 0009182 353.8818 157.8722 15.03684230872776"}}, "geometry": {"type": "Point", "coordinates": [-45.70694289597234, 84.93326282642951]}}, {"type": "Feature", "properties": {"norad_id": 35628, "name": "IRIDIUM 33 DEB", "group": "iridium-33-debris", "lat": 30.124461257578528, "lon": -171.03573941380682, "alt_km": 674.5507564681602, "timestamp": "2025-12-08T05:48:09.419111+00:00", "meta": {"OBJECT_NAME": "IRIDIUM 33 DEB", "OBJECT_ID": "1997-051RA", "EPOCH": "2025-12-04T09:28:36.488064", "MEAN_MOTION": 14.67394134, "ECCENTRICITY": 0.001144, "INCLINATION": 86.3576, "RA_OF_ASC_NODE": 12.797, "ARG_OF_PERICENTER": 12.0998, "MEAN_ANOMALY": 348.0488, "EPHEMERIS_TYPE": 0, "CLASSIFICATION_TYPE": "U", "NORAD_CAT_ID": 35628, "ELEMENT_SET_NO": 999, "REV_AT_EPOCH": 86324, "BSTAR": 0.0032445, "MEAN_MOTION_DOT": 0.00018408, "MEAN_MOTION_DDOT": 0}, "tle": {"line1": "1 35628U 97051RA  25338.39486676  .00018408  00000+0  32445-2 0  9996", "line2": "2 35628  86.3576  12.7970 0011440  12.0998 348.0488 14.67394134863246"}}, "geometry": {"type": "Point", "coordinates": [-171.03573941380682, 30.124461257578528]}}, {"type": "Feature", "properties": {"norad_id": 35631, "name": "IRIDIUM 33 DEB", "group": "iridium-33-debris", "lat": 12.106229757151933, "lon": 23.69386033927672, "alt_km": 742.2014466152295, "timestamp": "2025-12-08T05:48:09.419132+00:00", "meta": {"OBJECT_NAME": "IRIDIUM 33 DEB", "OBJECT_ID": "1997-051RD", "EPOCH": "2025-12-06T21:23:47.071392", "MEAN_MOTION": 14.47286545, "ECCENTRICITY": 0.00185223, "INCLINATION": 86.3689, "RA_OF_ASC_NODE": 23.4943, "ARG_OF_PERICENTER": 135.5581, "MEAN_ANOMALY": 46.1978, "EPHEMERIS_TYPE": 0, "CLASSIFICATION_TYPE": "U", "NORAD_CAT_ID": 35631, "ELEMENT_SET_NO": 999, "REV_AT_EPOCH": 87112, "BSTAR": 0.00062002851, "MEAN_MOTION_DOT": 2.292e-05, "MEAN_MOTION_DDOT": 0}, "tle": {"line1": "1 35631U 97051RD  25340.89151703  .00002292  00000+0  62003-3 0  9996", "line2": "2 35631  86.3689  23.4943 0018522 135.5581  46.1978 14.47286545871121"}}, "geometry": {"type": "Point", "coordinates": [23.69386033927672, 12.106229757151933]}}, {"type": "Feature", "properties": {"norad_id": 35680, "name": "IRIDIUM 33 DEB", "group": "iridium-33-debris", "lat": 52.15400745879186, "lon": 28.54856386457563, "alt_km": 869.8851824156136, "timestamp": "2025-12-08T05:48:09.419145+00:00", "meta": {"OBJECT_NAME": "IRIDIUM 33 DEB", "OBJECT_ID": "1997-051RJ", "EPOCH": "2025-12-07T09:19:47.246592", "MEAN_MOTION": 14.20776466, "ECCENTRICITY": 0.01503971, "INCLINATION": 86.1018, "RA_OF_ASC_NODE": 23.8914, "ARG_OF_PERICENTER": 295.6462, "MEAN_ANOMALY": 74.8204, "EPHEMERIS_TYPE": 0, "CLASSIFICATION_TYPE": "U", "NORAD_CAT_ID": 35680, "ELEMENT_SET_NO": 999, "REV_AT_EPOCH": 60625, "BSTAR": 0.0056071361, "MEAN_MOTION_DOT": 0.00013594, "MEAN_MOTION_DDOT": 0}, "tle": {"line1": "1 35680U 97051RJ  25341.38874128  .00013594  00000+0  56071-2 0  9992", "line2": "2 35680  86.1018  23.8914 0150397 295.6462  74.8204 14.20776466606251"}}, "geometry": {"type": "Point", "coordinates": [28.54856386457563, 52.15400745879186]}}]}